[{"OBJECT_NAME":"STARLINK-36871","OBJECT_ID":"2026-040J","EPOCH":"2026-03-09T22:00:01.999584","MEAN_MOTION":16.05731616,"ECCENTRICITY":8.888e-5,"INCLINATION":97.277,"RA_OF_ASC_NODE":17.1185,"ARG_OF_PERICENTER":95.0018,"MEAN_ANOMALY":273.2998,"EPHEMERIS_TYPE":0,"CLASSIFICATION_TYPE":"U","NORAD_CAT_ID":68023,"ELEMENT_SET_NO":999,"REV_AT_EPOCH":246,"BSTAR":-0.0016560484,"MEAN_MOTION_DOT":-0.0116922,"MEAN_MOTION_DDOT":0.00046804614},{"OBJECT_NAME":"OBJECT AC","OBJECT_ID":"2026-042AC","EPOCH":"2026-03-09T18:00:02.000160","MEAN_MOTION":16.03663044,"ECCENTRICITY":7.79e-5,"INCLINATION":53.1605,"RA_OF_ASC_NODE":194.9561,"ARG_OF_PERICENTER":61.4448,"MEAN_ANOMALY":12.6679,"EPHEMERIS_TYPE":0,"CLASSIFICATION_TYPE":"U","NORAD_CAT_ID":68095,"ELEMENT_SET_NO":999,"REV_AT_EPOCH":205,"BSTAR":-0.0019625401,"MEAN_MOTION_DOT":-0.01275566,"MEAN_MOTION_DDOT":0.00053805848}]
